NORAD_CAT_ID,OBJECT_NAME,OBJECT_TYPE,EPOCH,MEAN_MOTION,ECCENTRICITY,INCLINATION,RA_OF_ASC_NODE,ARG_OF_PERICENTER,MEAN_ANOMALY,BSTAR,MEAN_MOTION_DOT,MEAN_MOTION_DDOT,TLE_LINE0,TLE_LINE1,TLE_LINE2,SEMIMAJOR_AXIS,PERIOD,APOGEE,PERIGEE,DECAYED
56808.0,STARLINK-6042,PAYLOAD,2023-09-16 17:18:42,15.71800803,0.0004085,69.9992,108.2052,250.3514,109.7242,0.0002542,0.0003297,0.0,0 STARLINK-6042,1 56808U 23078AT  23259.72132094  .00032970  00000-0  25420-3 0  9993,2 56808  69.9992 108.2052 0004085 250.3514 109.7242 15.71800803 17330,6731.887,91.615,356.502,351.002,0.0
56808.0,STARLINK-6042,PAYLOAD,2023-09-16 23:25:15,15.71863719,0.0004538,69.9977,107.4868,259.3094,100.7592,0.0005007,0.00065587,0.0,0 STARLINK-6042,1 56808U 23078AT  23259.97587420  .00065587  00000-0  50070-3 0  9996,2 56808  69.9977 107.4868 0004538 259.3094 100.7592 15.71863719 17372,6731.708,91.611,356.628,350.518,0.0
56808.0,STARLINK-6042,PAYLOAD,2023-09-17 16:13:14,15.71982415,0.0004639,69.9971,105.512,260.0581,100.0093,0.00083133,0.00110172,0.0,0 STARLINK-6042,1 56808U 23078AT  23260.67586698  .00110172  00000-0  83133-3 0  9998,2 56808  69.9971 105.5120 0004639 260.0581 100.0093 15.71982415 17484,6731.369,91.604,356.356,350.111,0.0
56808.0,STARLINK-6042,PAYLOAD,2023-09-18 01:23:01,15.72036931,0.0004662,69.9972,104.4347,258.4309,101.6365,0.00068515,0.00090761,0.0,0 STARLINK-6042,1 56808U 23078AT  23261.05766107  .00090761  00000-0  68515-3 0  9994,2 56808  69.9972 104.4347 0004662 258.4309 101.6365 15.72036931 17549,6731.213,91.601,356.216,349.94,0.0
56808.0,STARLINK-6042,PAYLOAD,2023-09-18 16:39:17,15.72140638,0.0004646,69.9973,102.6397,259.4985,100.5689,0.0006638,0.00088285,0.0,0 STARLINK-6042,1 56808U 23078AT  23261.69395129  .00088285  00000-0  66380-3 0  9992,2 56808  69.9973 102.6397 0004646 259.4985 100.5689 15.72140638 17646,6730.917,91.595,355.909,349.655,0.0
56808.0,STARLINK-6042,PAYLOAD,2023-09-18 21:14:09,15.72181475,0.0004674,69.9973,102.1012,258.4745,101.5927,0.00069693,0.00092914,0.0,0 STARLINK-6042,1 56808U 23078AT  23261.88482861  .00092914  00000-0  69693-3 0  9997,2 56808  69.9973 102.1012 0004674 258.4745 101.5927 15.72181475 17414,6730.801,91.592,355.812,349.52,0.0
56808.0,STARLINK-6042,PAYLOAD,2023-09-19 00:17:23,15.72211331,0.0004641,69.9975,101.7421,258.219,101.8486,0.00068211,0.00091027,0.0,0 STARLINK-6042,1 56808U 23078AT  23262.01207742  .00091027  00000-0  68211-3 0  9995,2 56808  69.9975 101.7421 0004641 258.2190 101.8486 15.72211331 17699,6730.715,91.591,355.704,349.457,0.0
56808.0,STARLINK-6042,PAYLOAD,2023-09-19 17:05:08,15.72368657,0.0004504,69.9978,99.7682,253.339,106.7313,0.00067048,0.00090056,0.0,0 STARLINK-6042,1 56808U 23078AT  23262.71190183  .00090056  00000-0  67048-3 0  9990,2 56808  69.9978  99.7682 0004504 253.3390 106.7313 15.72368657 17803,6730.266,91.582,355.163,349.1,0.0
56808.0,STARLINK-6042,PAYLOAD,2023-09-19 21:39:57,15.72410539,0.0004648,69.9976,99.2294,253.619,106.4496,0.00075615,0.00101918,0.0,0 STARLINK-6042,1 56808U 23078AT  23262.90275258  .00101918  00000-0  75615-3 0  9997,2 56808  69.9976  99.2294 0004648 253.6190 106.4496 15.72410539 17834,6730.147,91.579,355.14,348.884,0.0
56808.0,STARLINK-6042,PAYLOAD,2023-09-20 19:02:23,15.72563632,0.0004743,69.9975,96.7151,259.4453,100.621,0.00068144,0.00092321,0.0,0 STARLINK-6042,1 56808U 23078AT  23263.79333303  .00092321  00000-0  68144-3 0  9997,2 56808  69.9975  96.7151 0004743 259.4453 100.6210 15.72563632 17977,6729.71,91.57,354.767,348.383,0.0
56808.0,STARLINK-6042,PAYLOAD,2023-09-20 20:33:59,15.72570166,0.0004573,69.9983,96.5355,255.5371,104.5319,0.00062888,0.0008513,0.0,0 STARLINK-6042,1 56808U 23078AT  23263.85694281  .00085130  00000-0  62888-3 0  9998,2 56808  69.9983  96.5355 0004573 255.5371 104.5319 15.72570166 17723,6729.691,91.57,354.634,348.479,0.0
56808.0,STARLINK-6042,PAYLOAD,2023-09-20 23:37:11,15.72588981,0.0004254,69.9984,96.1765,264.3304,95.7408,0.00067883,0.00092051,0.0,0 STARLINK-6042,1 56808U 23078AT  23263.98416289  .00092051  00000-0  67883-3 0  9992,2 56808  69.9984  96.1765 0004254 264.3304  95.7408 15.72588981 18001,6729.638,91.569,354.366,348.64,0.0
56808.0,STARLINK-6042,PAYLOAD,2023-09-21 13:21:31,15.72688026,0.0004775,69.9977,94.5604,260.4022,99.6635,0.00061632,0.00083836,0.0,0 STARLINK-6042,1 56808U 23078AT  23264.55662024  .00083836  00000-0  61632-3 0  9993,2 56808  69.9977  94.5604 0004775 260.4022  99.6635 15.72688026 17835,6729.355,91.563,354.433,348.007,0.0
56808.0,STARLINK-6042,PAYLOAD,2023-09-21 16:24:42,15.72703905,0.0004288,69.9992,94.202,258.2505,101.8211,0.00052783,0.00071703,0.0,0 STARLINK-6042,1 56808U 23078AT  23264.68382925  .00071703  00000-0  52783-3 0  9993,2 56808  69.9992  94.2020 0004288 258.2505 101.8211 15.72703905 18113,6729.31,91.562,354.06,348.289,0.0
56808.0,STARLINK-6042,PAYLOAD,2023-09-21 20:59:29,15.72717537,0.0003993,69.9993,93.6631,256.0609,104.0144,0.00033572,0.00045407,0.0,0 STARLINK-6042,1 56808U 23078AT  23264.87464178  .00045407  00000-0  33572-3 0  9992,2 56808  69.9993  93.6631 0003993 256.0609 104.0144 15.72717537 17887,6729.271,91.561,353.823,348.449,0.0
56808.0,STARLINK-6042,PAYLOAD,2023-09-22 06:08:59,15.72802387,0.0004839,69.9979,92.5852,260.4019,99.6632,0.00061763,0.00084431,0.0,0 STARLINK-6042,1 56808U 23078AT  23265.25624620  .00084431  00000-0  61763-3 0  9998,2 56808  69.9979  92.5852 0004839 260.4019  99.6632 15.72802387 18204,6729.029,91.556,354.15,347.638,0.0
56808.0,STARLINK-6042,PAYLOAD,2023-09-22 13:46:54,15.7286171,0.000483,69.9978,91.6872,261.2134,98.8516,0.00067529,0.00092657,0.0,0 STARLINK-6042,1 56808U 23078AT  23265.57424062  .00092657  00000-0  67529-3 0  9996,2 56808  69.9978  91.6872 0004830 261.2134  98.8516 15.72861710 17995,6728.86,91.553,353.975,347.475,0.0
56808.0,STARLINK-6042,PAYLOAD,2023-09-22 21:24:48,15.72917841,0.000489,69.9978,90.7891,259.8933,100.1712,0.00066993,0.00092135,0.0,0 STARLINK-6042,1 56808U 23078AT  23265.89222359  .00092135  00000-0  66993-3 0  9991,2 56808  69.9978  90.7891 0004890 259.8933 100.1712 15.72917841 18041,6728.7,91.55,353.855,347.274,0.0
56808.0,STARLINK-6042,PAYLOAD,2023-09-23 21:49:56,15.73117269,0.0004999,69.9979,87.9151,260.7116,99.3516,0.00064246,0.00089072,0.0,0 STARLINK-6042,1 56808U 23078AT  23266.90968374  .00089072  00000-0  64246-3 0  9993,2 56808  69.9979  87.9151 0004999 260.7116  99.3516 15.73117269 18467,6728.131,91.538,353.359,346.633,0.0
56808.0,STARLINK-6042,PAYLOAD,2023-09-24 13:05:33,15.73241893,0.0005076,69.9975,86.1185,262.3434,97.7187,0.00068822,0.00096021,0.0,0 STARLINK-6042,1 56808U 23078AT  23267.54553139  .00096021  00000-0  68822-3 0  9999,2 56808  69.9975  86.1185 0005076 262.3434  97.7187 15.73241893 18309,6727.776,91.531,353.056,346.226,0.0
56808.0,STARLINK-6042,PAYLOAD,2023-09-24 14:37:07,15.73253796,0.0005084,69.9975,85.9388,262.1461,97.9159,0.00068135,0.00095098,0.0,0 STARLINK-6042,1 56808U 23078AT  23267.60911345  .00095098  00000-0  68135-3 0  9993,2 56808  69.9975  85.9388 0005084 262.1461  97.9159 15.73253796 18573,6727.742,91.53,353.027,346.186,0.0
56808.0,STARLINK-6042,PAYLOAD,2023-09-24 20:43:20,15.73303208,0.0005117,69.9975,85.2202,260.8809,99.181,0.00066169,0.00092516,0.0,0 STARLINK-6042,1 56808U 23078AT  23267.86343655  .00092516  00000-0  66169-3 0  9991,2 56808  69.9975  85.2202 0005117 260.8809  99.1810 15.73303208 18357,6727.601,91.527,352.908,346.023,0.0
56808.0,STARLINK-6042,PAYLOAD,2023-09-25 13:30:24,15.73473338,0.0004991,69.9973,83.2426,265.0693,94.9935,0.00085936,0.00121507,0.0,0 STARLINK-6042,1 56808U 23078AT  23268.56277822  .00121507  00000-0  85936-3 0  9997,2 56808  69.9973  83.2426 0004991 265.0693  94.9935 15.73473338 18463,6727.116,91.517,352.338,345.623,0.0
56808.0,STARLINK-6042,PAYLOAD,2023-09-25 15:01:56,15.73481149,0.0005079,69.998,83.0636,267.7137,92.3479,0.00080784,0.00114151,0.0,0 STARLINK-6042,1 56808U 23078AT  23268.62635145  .00114151  00000-0  80784-3 0  9993,2 56808  69.9980  83.0636 0005079 267.7137  92.3479 15.73481149 18736,6727.094,91.517,352.375,345.542,0.0
56808.0,STARLINK-6042,PAYLOAD,2023-09-25 21:08:06,15.73547374,0.000478,69.9979,82.3449,256.3297,103.7368,0.00073782,0.00104404,0.0,0 STARLINK-6042,1 56808U 23078AT  23268.88063426  .00104404  00000-0  73782-3 0  9998,2 56808  69.9979  82.3449 0004780 256.3297 103.7368 15.73547374 18510,6726.905,91.513,351.985,345.555,0.0
56808.0,STARLINK-6042,PAYLOAD,2023-09-26 13:55:00,15.7371483,0.0005141,69.9966,80.3668,264.988,95.0731,0.00084779,0.00121112,0.0,0 STARLINK-6042,1 56808U 23078AT  23269.57986571  .00121112  00000-0  84779-3 0  9993,2 56808  69.9966  80.3668 0005141 264.9880  95.0731 15.73714830 18624,6726.428,91.503,351.751,344.835,0.0
56808.0,STARLINK-6042,PAYLOAD,2023-09-26 21:32:38,15.73796201,0.0005153,69.9962,79.4675,264.0789,95.9821,0.00083489,0.00119662,0.0,0 STARLINK-6042,1 56808U 23078AT  23269.89767348  .00119662  00000-0  83489-3 0  9991,2 56808  69.9962  79.4675 0005153 264.0789  95.9821 15.73796201 18675,6726.196,91.499,351.527,344.595,0.0
56808.0,STARLINK-6042,PAYLOAD,2023-09-27 12:47:52,15.73926692,0.0005112,69.9963,77.6693,265.0926,94.9688,0.00074113,0.0010663,0.0,0 STARLINK-6042,1 56808U 23078AT  23270.53324732  .00106630  00000-0  74113-3 0  9995,2 56808  69.9963  77.6693 0005112 265.0926  94.9688 15.73926692 18775,6725.824,91.491,351.127,344.251,0.0
56808.0,STARLINK-6042,PAYLOAD,2023-09-27 18:53:56,15.73979356,0.0005122,69.9966,76.9502,264.453,95.6084,0.00074452,0.00107371,0.0,0 STARLINK-6042,1 56808U 23078AT  23270.78746176  .00107371  00000-0  74452-3 0  9991,2 56808  69.9966  76.9502 0005122 264.4530  95.6084 15.73979356 19071,6725.674,91.488,350.984,344.094,0.0
56808.0,STARLINK-6042,PAYLOAD,2023-09-28 14:43:35,15.74147325,0.00052,69.9964,74.6128,267.2805,92.7798,0.00067814,0.00098384,0.0,0 STARLINK-6042,1 56808U 23078AT  23271.61359963  .00098384  00000-0  67814-3 0  9995,2 56808  69.9964  74.6128 0005200 267.2805  92.7798 15.74147325 18940,6725.196,91.478,350.558,343.564,0.0
